start=new Date('2022-09-13T00:00:00.000Z').valueOf();
sats=[{"EPOCH":"2022-09-12T18:34:18.551712","RA_OF_ASC_NODE":"170.4573","ARG_OF_PERICENTER":"110.2053","MEAN_ANOMALY":"249.9099","PERIOD":"95.592","MEAN_MOTION_DOT":"-0.00000252","GP_ID":"212429969","MEAN_ELEMENT_THEORY":"SGP4","INCLINATION":"53.0569","MEAN_MOTION_DDOT":"0.0000000000000","TIME_SYSTEM":"UTC","OBJECT_NAME":"STARLINK-2154","COUNTRY_CODE":"US","CLASSIFICATION_TYPE":"U","ECCENTRICITY":"0.00015140","MEAN_MOTION":"15.06401457","CENTER_NAME":"EARTH","REV_AT_EPOCH":"8572","SEMIMAJOR_AXIS":"6925.344","ELEMENT_SET_NO":"999","SITE":"AFETR","PERIAPSIS":"546.161","EPHEMERIS_TYPE":"0","OBJECT_ID":"2021-017V","TLE_LINE2":"2 47741  53.0569 170.4573 0001514 110.2053 249.9099 15.06401457 85720","DECAY_DATE":null,"REF_FRAME":"TEME","FILE":"3570509","NORAD_CAT_ID":"47741","RCS_SIZE":"LARGE","TLE_LINE1":"1 47741U 21017V   22255.77382583 -.00000252  00000-0  19733-5 0  9991","OBJECT_TYPE":"PAYLOAD","LAUNCH_DATE":"2021-03-04","BSTAR":"0.00000197330000","APOAPSIS":"548.258"},{"COUNTRY_CODE":"US","OBJECT_NAME":"STARLINK-2156","ECCENTRICITY":"0.00013700","MEAN_MOTION":"15.06397085","CLASSIFICATION_TYPE":"U","INCLINATION":"53.0543","MEAN_ELEMENT_THEORY":"SGP4","GP_ID":"212430713","TIME_SYSTEM":"UTC","MEAN_MOTION_DDOT":"0.0000000000000","MEAN_ANOMALY":"288.8312","ARG_OF_PERICENTER":"71.2825","PERIOD":"95.592","MEAN_MOTION_DOT":"-0.00000100","RA_OF_ASC_NODE":"160.1011","EPOCH":"2022-09-12T20:27:07.022304","BSTAR":"0.00001215500000","LAUNCH_DATE":"2021-03-04","OBJECT_TYPE":"PAYLOAD","APOAPSIS":"548.171","NORAD_CAT_ID":"47742","FILE":"3570509","RCS_SIZE":"LARGE","TLE_LINE1":"1 47742U 21017W   22255.85216461 -.00000100  00000-0  12155-4 0  9994","OBJECT_ID":"2021-017W","EPHEMERIS_TYPE":"0","REF_FRAME":"TEME","DECAY_DATE":null,"TLE_LINE2":"2 47742  53.0543 160.1011 0001370  71.2825 288.8312 15.06397085 85922","CENTER_NAME":"EARTH","REV_AT_EPOCH":"8592","SEMIMAJOR_AXIS":"6925.357","SITE":"AFETR","ELEMENT_SET_NO":"999","PERIAPSIS":"546.274"},{"OBJECT_NAME":"STARLINK-2157","COUNTRY_CODE":"US","CLASSIFICATION_TYPE":"U","MEAN_MOTION":"15.06404564","ECCENTRICITY":"0.00014230","GP_ID":"212430943","MEAN_ELEMENT_THEORY":"SGP4","INCLINATION":"53.0528","MEAN_MOTION_DDOT":"0.0000000000000","TIME_SYSTEM":"UTC","ARG_OF_PERICENTER":"83.2051","MEAN_ANOMALY":"276.9100","MEAN_MOTION_DOT":"0.00001371","PERIOD":"95.592","EPOCH":"2022-09-12T19:28:42.762720","RA_OF_ASC_NODE":"160.2897","OBJECT_TYPE":"PAYLOAD","LAUNCH_DATE":"2021-03-04","BSTAR":"0.00011088000000","APOAPSIS":"548.185","NORAD_CAT_ID":"47743","FILE":"3570509","TLE_LINE1":"1 47743U 21017X   22255.81160605  .00001371  00000-0  11088-3 0  9992","RCS_SIZE":"LARGE","OBJECT_ID":"2021-017X","EPHEMERIS_TYPE":"0","TLE_LINE2":"2 47743  53.0528 160.2897 0001423  83.2051 276.9100 15.06404564 85892","DECAY_DATE":null,"REF_FRAME":"TEME","SEMIMAJOR_AXIS":"6925.335","REV_AT_EPOCH":"8589","CENTER_NAME":"EARTH","PERIAPSIS":"546.214","ELEMENT_SET_NO":"999","SITE":"AFETR"},{"MEAN_ANOMALY":"282.5459","ARG_OF_PERICENTER":"77.5690","MEAN_MOTION_DOT":"0.00000719","PERIOD":"95.592","RA_OF_ASC_NODE":"160.0523","EPOCH":"2022-09-12T20:25:44.024736","COUNTRY_CODE":"US","OBJECT_NAME":"STARLINK-2158","MEAN_MOTION":"15.06396346","ECCENTRICITY":"0.00014300","CLASSIFICATION_TYPE":"U","INCLINATION":"53.0537","MEAN_ELEMENT_THEORY":"SGP4","GP_ID":"212430220","TIME_SYSTEM":"UTC","MEAN_MOTION_DDOT":"0.0000000000000","OBJECT_ID":"2021-017Y","EPHEMERIS_TYPE":"0","DECAY_DATE":null,"REF_FRAME":"TEME","TLE_LINE2":"2 47744  53.0537 160.0523 0001430  77.5690 282.5459 15.06396346 85922","SEMIMAJOR_AXIS":"6925.360","REV_AT_EPOCH":"8592","CENTER_NAME":"EARTH","PERIAPSIS":"546.234","ELEMENT_SET_NO":"999","SITE":"AFETR","BSTAR":"0.00006714200000","LAUNCH_DATE":"2021-03-04","OBJECT_TYPE":"PAYLOAD","APOAPSIS":"548.215","FILE":"3570509","NORAD_CAT_ID":"47744","TLE_LINE1":"1 47744U 21017Y   22255.85120399  .00000719  00000-0  67142-4 0  9991","RCS_SIZE":"LARGE"},{"MEAN_MOTION_DOT":"0.00001791","PERIOD":"95.592","MEAN_ANOMALY":"273.8330","ARG_OF_PERICENTER":"86.2824","RA_OF_ASC_NODE":"172.6236","EPOCH":"2022-09-12T06:53:40.978176","MEAN_MOTION":"15.06402636","ECCENTRICITY":"0.00014400","CLASSIFICATION_TYPE":"U","COUNTRY_CODE":"US","OBJECT_NAME":"STARLINK-2159","TIME_SYSTEM":"UTC","MEAN_MOTION_DDOT":"0.0000000000000","MEAN_ELEMENT_THEORY":"SGP4","INCLINATION":"53.0549","GP_ID":"212399120","DECAY_DATE":null,"REF_FRAME":"TEME","TLE_LINE2":"2 47745  53.0549 172.6236 0001440  86.2824 273.8330 15.06402636 85643","EPHEMERIS_TYPE":"0","OBJECT_ID":"2021-017Z","PERIAPSIS":"546.208","ELEMENT_SET_NO":"999","SITE":"AFETR","SEMIMAJOR_AXIS":"6925.340","CENTER_NAME":"EARTH","REV_AT_EPOCH":"8564","APOAPSIS":"548.203","BSTAR":"0.00013911000000","OBJECT_TYPE":"PAYLOAD","LAUNCH_DATE":"2021-03-04","TLE_LINE1":"1 47745U 21017Z   22255.28727984  .00001791  00000-0  13911-3 0  9997","RCS_SIZE":"LARGE","FILE":"3570189","NORAD_CAT_ID":"47745"},{"GP_ID":"212431214","INCLINATION":"53.0539","MEAN_ELEMENT_THEORY":"SGP4","MEAN_MOTION_DDOT":"0.0000000000000","TIME_SYSTEM":"UTC","OBJECT_NAME":"STARLINK-2160","COUNTRY_CODE":"US","CLASSIFICATION_TYPE":"U","ECCENTRICITY":"0.00013980","MEAN_MOTION":"15.06404304","EPOCH":"2022-09-12T19:27:23.362848","RA_OF_ASC_NODE":"170.2937","ARG_OF_PERICENTER":"74.0322","MEAN_ANOMALY":"286.0821","PERIOD":"95.592","MEAN_MOTION_DOT":"0.00003256","NORAD_CAT_ID":"47746","FILE":"3570509","RCS_SIZE":"LARGE","TLE_LINE1":"1 47746U 21017AA  22255.81068707  .00003256  00000-0  23738-3 0  9994","LAUNCH_DATE":"2021-03-04","OBJECT_TYPE":"PAYLOAD","BSTAR":"0.00023738000000","APOAPSIS":"548.169","CENTER_NAME":"EARTH","REV_AT_EPOCH":"8571","SEMIMAJOR_AXIS":"6925.335","SITE":"AFETR","ELEMENT_SET_NO":"999","PERIAPSIS":"546.232","EPHEMERIS_TYPE":"0","OBJECT_ID":"2021-017AA","TLE_LINE2":"2 47746  53.0539 170.2937 0001398  74.0322 286.0821 15.06404304 85718","DECAY_DATE":null,"REF_FRAME":"TEME"},{"OBJECT_TYPE":"PAYLOAD","LAUNCH_DATE":"2021-03-04","BSTAR":"0.00028020000000","APOAPSIS":"548.303","FILE":"3570189","NORAD_CAT_ID":"47747","RCS_SIZE":"LARGE","TLE_LINE1":"1 47747U 21017AB  22255.21080250  .00003895  00000-0  28020-3 0  9994","EPHEMERIS_TYPE":"0","OBJECT_ID":"2021-017AB","TLE_LINE2":"2 47747  53.0535 162.9692 0001584  71.2241 288.8920 15.06402486 85806","DECAY_DATE":null,"REF_FRAME":"TEME","REV_AT_EPOCH":"8580","CENTER_NAME":"EARTH","SEMIMAJOR_AXIS":"6925.341","ELEMENT_SET_NO":"999","SITE":"AFETR","PERIAPSIS":"546.109","OBJECT_NAME":"STARLINK-2161","COUNTRY_CODE":"US","CLASSIFICATION_TYPE":"U","ECCENTRICITY":"0.00015840","MEAN_MOTION":"15.06402486","GP_ID":"212398118","MEAN_ELEMENT_THEORY":"SGP4","INCLINATION":"53.0535","MEAN_MOTION_DDOT":"0.0000000000000","TIME_SYSTEM":"UTC","ARG_OF_PERICENTER":"71.2241","MEAN_ANOMALY":"288.8920","PERIOD":"95.592","MEAN_MOTION_DOT":"0.00003895","EPOCH":"2022-09-12T05:03:33.336000","RA_OF_ASC_NODE":"162.9692"},{"PERIOD":"95.592","MEAN_MOTION_DOT":"0.00002515","ARG_OF_PERICENTER":"59.3802","MEAN_ANOMALY":"300.7330","EPOCH":"2022-09-12T12:50:37.976064","RA_OF_ASC_NODE":"161.5180","CLASSIFICATION_TYPE":"U","ECCENTRICITY":"0.00014510","MEAN_MOTION":"15.06396496","OBJECT_NAME":"STARLINK-2162","COUNTRY_CODE":"US","MEAN_MOTION_DDOT":"0.0000000000000","TIME_SYSTEM":"UTC","GP_ID":"212429720","MEAN_ELEMENT_THEORY":"SGP4","INCLINATION":"53.0545","TLE_LINE2":"2 47748  53.0545 161.5180 0001451  59.3802 300.7330 15.06396496 85822","REF_FRAME":"TEME","DECAY_DATE":null,"EPHEMERIS_TYPE":"0","OBJECT_ID":"2021-017AC","ELEMENT_SET_NO":"999","SITE":"AFETR","PERIAPSIS":"546.219","REV_AT_EPOCH":"8582","CENTER_NAME":"EARTH","SEMIMAJOR_AXIS":"6925.359","APOAPSIS":"548.229","LAUNCH_DATE":"2021-03-04","OBJECT_TYPE":"PAYLOAD","BSTAR":"0.00018767000000","RCS_SIZE":"LARGE","TLE_LINE1":"1 47748U 21017AC  22255.53516176  .00002515  00000-0  18767-3 0  9996","FILE":"3570509","NORAD_CAT_ID":"47748"},{"TLE_LINE1":"1 47749U 21017AD  22255.15182826  .00001861  00000-0  14381-3 0  9997","RCS_SIZE":"MEDIUM","NORAD_CAT_ID":"47749","FILE":"3569477","APOAPSIS":"548.397","OBJECT_TYPE":"PAYLOAD","LAUNCH_DATE":"2021-03-04","BSTAR":"0.00014381000000","PERIAPSIS":"546.084","ELEMENT_SET_NO":"999","SITE":"AFETR","SEMIMAJOR_AXIS":"6925.375","CENTER_NAME":"EARTH","REV_AT_EPOCH":"8513","TLE_LINE2":"2 47749  53.0546 163.2460 0001670  67.2600 292.8565 15.06391322 85139","REF_FRAME":"TEME","DECAY_DATE":null,"EPHEMERIS_TYPE":"0","OBJECT_ID":"2021-017AD","MEAN_MOTION_DDOT":"0.0000000000000","TIME_SYSTEM":"UTC","GP_ID":"212362753","INCLINATION":"53.0546","MEAN_ELEMENT_THEORY":"SGP4","CLASSIFICATION_TYPE":"U","MEAN_MOTION":"15.06391322","ECCENTRICITY":"0.00016700","OBJECT_NAME":"STARLINK-2163","COUNTRY_CODE":"US","EPOCH":"2022-09-12T03:38:37.961664","RA_OF_ASC_NODE":"163.2460","MEAN_MOTION_DOT":"0.00001861","PERIOD":"95.593","ARG_OF_PERICENTER":"67.2600","MEAN_ANOMALY":"292.8565"},{"NORAD_CAT_ID":"47750","FILE":"3570189","TLE_LINE1":"1 47750U 21017AE  22255.39509803  .00002555  00000-0  19033-3 0  9993","RCS_SIZE":"LARGE","LAUNCH_DATE":"2021-03-04","OBJECT_TYPE":"PAYLOAD","BSTAR":"0.00019033000000","APOAPSIS":"548.379","SEMIMAJOR_AXIS":"6925.336","CENTER_NAME":"EARTH","REV_AT_EPOCH":"8580","PERIAPSIS":"546.023","SITE":"AFETR","ELEMENT_SET_NO":"999","OBJECT_ID":"2021-017AE","EPHEMERIS_TYPE":"0","TLE_LINE2":"2 47750  53.0532 162.1459 0001701  65.5223 294.5943 15.06404172 85800","REF_FRAME":"TEME","DECAY_DATE":null,"GP_ID":"212398369","MEAN_ELEMENT_THEORY":"SGP4","INCLINATION":"53.0532","MEAN_MOTION_DDOT":"0.0000000000000","TIME_SYSTEM":"UTC","OBJECT_NAME":"STARLINK-2164","COUNTRY_CODE":"US","CLASSIFICATION_TYPE":"U","MEAN_MOTION":"15.06404172","ECCENTRICITY":"0.00017010","EPOCH":"2022-09-12T09:28:56.469792","RA_OF_ASC_NODE":"162.1459","ARG_OF_PERICENTER":"65.5223","MEAN_ANOMALY":"294.5943","MEAN_MOTION_DOT":"0.00002555","PERIOD":"95.592"}];
